NORAD_CAT_ID,OBJECT_NAME,OBJECT_TYPE,EPOCH,MEAN_MOTION,ECCENTRICITY,INCLINATION,RA_OF_ASC_NODE,ARG_OF_PERICENTER,MEAN_ANOMALY,BSTAR,MEAN_MOTION_DOT,MEAN_MOTION_DDOT,TLE_LINE0,TLE_LINE1,TLE_LINE2,SEMIMAJOR_AXIS,PERIOD,APOGEE,PERIGEE,DECAYED
52131.0,STARLINK-3711,PAYLOAD,2024-04-05 09:42:10,15.08855293,0.0001392,53.2187,346.2916,84.5979,275.5172,0.00043279,6.609e-05,0.0,0 STARLINK-3711,1 52131U 22029AV  24096.40428740  .00006609  00000-0  43279-3 0  9996,2 52131  53.2187 346.2916 0001392  84.5979 275.5172 15.08855293114762,6917.834,95.437,540.662,538.736,0.0
52131.0,STARLINK-3711,PAYLOAD,2024-04-05 20:49:52,15.08845204,0.0002375,53.2169,344.2129,88.0202,272.1062,0.00025769,3.816e-05,0.0,0 STARLINK-3711,1 52131U 22029AV  24096.86797328  .00003816  00000-0  25769-3 0  9998,2 52131  53.2169 344.2129 0002375  88.0202 272.1062 15.08845204114836,6917.864,95.437,541.372,538.086,0.0
52131.0,STARLINK-3711,PAYLOAD,2024-04-06 00:00:39,15.08842236,0.0001423,53.2176,343.6132,84.068,276.0475,0.00015988,2.258e-05,0.0,0 STARLINK-3711,1 52131U 22029AV  24097.00045165  .00002258  00000-0  15988-3 0  9991,2 52131  53.2176 343.6132 0001423  84.0680 276.0475 15.08842236114855,6917.874,95.437,540.723,538.754,0.0
52131.0,STARLINK-3711,PAYLOAD,2024-04-06 09:32:57,15.08854347,0.0001545,53.2181,341.8266,82.4382,277.6785,0.00040653,6.19e-05,0.0,0 STARLINK-3711,1 52131U 22029AV  24097.39788681  .00006190  00000-0  40653-3 0  9996,2 52131  53.2181 341.8266 0001545  82.4382 277.6785 15.08854347114919,6917.837,95.437,540.77,538.633,0.0
52131.0,STARLINK-3711,PAYLOAD,2024-04-06 22:16:02,15.08842501,0.0001715,53.219,339.4502,81.7965,278.3221,8.0826e-05,9.99e-06,0.0,0 STARLINK-3711,1 52131U 22029AV  24097.92780944  .00000999  00000-0  80826-4 0  9997,2 52131  53.2190 339.4502 0001715  81.7965 278.3221 15.08842501114993,6917.873,95.437,540.924,538.551,0.0
52131.0,STARLINK-3711,PAYLOAD,2024-04-07 09:23:44,15.08851385,0.0001401,53.2178,337.3705,81.1884,278.9267,0.00012479,1.699e-05,0.0,0 STARLINK-3711,1 52131U 22029AV  24098.39148406  .00001699  00000-0  12479-3 0  9996,2 52131  53.2178 337.3705 0001401  81.1884 278.9267 15.08851385115062,6917.846,95.437,540.68,538.741,0.0
52131.0,STARLINK-3711,PAYLOAD,2024-04-07 20:31:28,15.0879627,6.02e-05,53.2192,335.2866,117.6871,242.4182,-0.0004992,-8.214e-05,0.0,0 STARLINK-3711,1 52131U 22029AV  24098.85519599 -.00008214  00000-0 -49920-3 0  9995,2 52131  53.2192 335.2866 0000602 117.6871 242.4182 15.08796270115137,6918.014,95.44,540.296,539.463,0.0
52131.0,STARLINK-3711,PAYLOAD,2024-04-07 22:06:52,15.08790422,0.0001286,53.2189,334.9883,86.949,273.165,-0.00054913,-9.005e-05,0.0,0 STARLINK-3711,1 52131U 22029AV  24098.92144300 -.00009005  00000-0 -54913-3 0  9994,2 52131  53.2189 334.9883 0001286  86.9490 273.1650 15.08790422115147,6918.032,95.441,540.787,539.007,0.0
52131.0,STARLINK-3711,PAYLOAD,2024-04-08 09:14:33,15.08830741,0.0001172,53.2183,332.9089,89.3473,270.7654,-1.7674e-05,-5.69e-06,0.0,0 STARLINK-3711,1 52131U 22029AV  24099.38510812 -.00000569  00000-0 -17674-4 0  9990,2 52131  53.2183 332.9089 0001172  89.3473 270.7654 15.08830741115213,6917.909,95.438,540.584,538.963,0.0
52131.0,STARLINK-3711,PAYLOAD,2024-04-08 21:57:38,15.08840677,8.13e-05,53.2185,330.5316,63.6797,296.4278,0.0002594,3.843e-05,0.0,0 STARLINK-3711,1 52131U 22029AV  24099.91502523  .00003843  00000-0  25940-3 0  9999,2 52131  53.2185 330.5316 0000813  63.6797 296.4278 15.08840677115291,6917.878,95.438,540.306,539.181,0.0
52131.0,STARLINK-3711,PAYLOAD,2024-04-09 01:08:23,15.08853161,0.0001392,53.2171,329.9356,87.5738,272.5413,0.00035775,5.412e-05,0.0,0 STARLINK-3711,1 52131U 22029AV  24100.04749977  .00005412  00000-0  35775-3 0  9993,2 52131  53.2171 329.9356 0001392  87.5738 272.5413 15.08853161115316,6917.84,95.437,540.668,538.742,0.0
52131.0,STARLINK-3711,PAYLOAD,2024-04-09 21:48:24,15.08846968,0.0001379,53.2157,326.0698,88.3031,271.8119,0.00042639,6.506e-05,0.0,0 STARLINK-3711,1 52131U 22029AV  24100.90862150  .00006506  00000-0  42639-3 0  9999,2 52131  53.2157 326.0698 0001379  88.3031 271.8119 15.08846968115443,6917.859,95.437,540.678,538.77,0.0
52131.0,STARLINK-3711,PAYLOAD,2024-04-10 15:17:38,15.08849302,0.0001465,53.2174,322.7986,86.4122,273.7037,-7.8855e-05,-1.543e-05,0.0,0 STARLINK-3711,1 52131U 22029AV  24101.63725592 -.00001543  00000-0 -78855-4 0  9996,2 52131  53.2174 322.7986 0001465  86.4122 273.7037 15.08849302115558,6917.852,95.437,540.73,538.703,0.0
52131.0,STARLINK-3711,PAYLOAD,2024-04-10 21:39:11,15.08844518,0.0001309,53.218,321.6086,94.69,265.4242,-6.8845e-05,-1.384e-05,0.0,0 STARLINK-3711,1 52131U 22029AV  24101.90222192 -.00001384  00000-0 -68845-4 0  9995,2 52131  53.2180 321.6086 0001309  94.6900 265.4242 15.08844518115590,6917.867,95.437,540.637,538.826,0.0
52131.0,STARLINK-3711,PAYLOAD,2024-04-11 21:29:58,15.0886179,0.0001201,53.2175,317.1479,93.3486,266.7644,-0.00023811,-4.078e-05,0.0,0 STARLINK-3711,1 52131U 22029AV  24102.89581428 -.00004078  00000-0 -23811-3 0  9990,2 52131  53.2175 317.1479 0001201  93.3486 266.7644 15.08861790115744,6917.814,95.436,540.51,538.848,0.0
52131.0,STARLINK-3711,PAYLOAD,2024-04-12 22:56:08,15.08839819,0.0001195,53.2173,312.3904,91.5176,268.5953,0.00012924,1.77e-05,0.0,0 STARLINK-3711,1 52131U 22029AV  24103.95565713  .00001770  00000-0  12924-3 0  9994,2 52131  53.2173 312.3904 0001195  91.5176 268.5953 15.08839819115908,6917.881,95.438,540.573,538.919,0.0
52131.0,STARLINK-3711,PAYLOAD,2024-04-13 21:11:32,15.08843431,0.0001276,53.218,308.2276,87.4512,272.6626,7.6578e-05,9.31e-06,0.0,0 STARLINK-3711,1 52131U 22029AV  24104.88301723  .00000931  00000-0  76578-4 0  9990,2 52131  53.2180 308.2276 0001276  87.4512 272.6626 15.08843431116044,6917.87,95.437,540.618,538.852,0.0
52131.0,STARLINK-3711,PAYLOAD,2024-04-14 19:26:56,15.08839383,0.00017,53.2194,304.055,67.9304,292.1868,6.4479e-05,7.38e-06,0.0,0 STARLINK-3711,1 52131U 22029AV  24105.81038188  .00000738  00000-0  64479-4 0  9998,2 52131  53.2194 304.0550 0001700  67.9304 292.1868 15.08839383116183,6917.882,95.438,540.923,538.571,0.0
52131.0,STARLINK-3711,PAYLOAD,2024-04-15 12:56:11,15.0884127,0.0001451,53.2184,300.7884,82.5738,277.5419,7.5727e-05,9.17e-06,0.0,0 STARLINK-3711,1 52131U 22029AV  24106.53902038  .00000917  00000-0  75727-4 0  9999,2 52131  53.2184 300.7884 0001451  82.5738 277.5419 15.08841270116291,6917.877,95.437,540.745,538.738,0.0
52131.0,STARLINK-3711,PAYLOAD,2024-04-16 06:25:25,15.08846544,0.0001854,53.2184,297.5187,97.2375,262.8828,0.00013184,1.811e-05,0.0,0 STARLINK-3711,1 52131U 22029AV  24107.26765519  .00001811  00000-0  13184-3 0  9993,2 52131  53.2184 297.5187 0001854  97.2375 262.8828 15.08846544116400,6917.86,95.437,541.008,538.443,0.0
52131.0,STARLINK-3711,PAYLOAD,2024-04-16 19:08:30,15.08847852,0.0001636,53.2188,295.1406,98.6156,261.5021,0.00011285,1.509e-05,0.0,0 STARLINK-3711,1 52131U 22029AV  24107.79757305  .00001509  00000-0  11285-3 0  9999,2 52131  53.2188 295.1406 0001636  98.6156 261.5021 15.08847852116484,6917.856,95.437,540.853,538.59,0.0
52131.0,STARLINK-3711,PAYLOAD,2024-04-17 17:23:54,15.0883499,0.000159,53.2159,290.9773,119.3855,240.7296,-4.9322e-05,-1.073e-05,0.0,0 STARLINK-3711,1 52131U 22029AV  24108.72494104 -.00001073  00000-0 -49322-4 0  9990,2 52131  53.2159 290.9773 0001590 119.3855 240.7296 15.08834990116626,6917.896,95.438,540.861,538.661,0.0
52131.0,STARLINK-3711,PAYLOAD,2024-04-18 12:28:33,15.08827115,0.0001187,53.2162,287.4074,108.9196,251.1925,-3.7325e-05,-8.82e-06,0.0,0 STARLINK-3711,1 52131U 22029AV  24109.51982923 -.00000882  00000-0 -37325-4 0  9996,2 52131  53.2162 287.4074 0001187 108.9196 251.1925 15.08827115116748,6917.92,95.438,540.606,538.964,0.0
52131.0,STARLINK-3711,PAYLOAD,2024-04-18 18:50:05,15.08844941,0.0001419,53.2175,286.224,109.4969,250.6177,0.0001195,1.615e-05,0.0,0 STARLINK-3711,1 52131U 22029AV  24109.78478153  .00001615  00000-0  11950-3 0  9998,2 52131  53.2175 286.2240 0001419 109.4969 250.6177 15.08844941116789,6917.865,95.437,540.712,538.749,0.0
52131.0,STARLINK-3711,PAYLOAD,2024-04-19 12:19:20,15.08837115,0.0001472,53.2177,282.9524,112.5959,247.5189,0.0003412,5.146e-05,0.0,0 STARLINK-3711,1 52131U 22029AV  24110.51342724  .00005146  00000-0  34120-3 0  9992,2 52131  53.2177 282.9524 0001472 112.5959 247.5189 15.08837115116897,6917.889,95.438,540.773,538.736,0.0
52131.0,STARLINK-3711,PAYLOAD,2024-04-19 20:16:12,15.08903938,0.0001294,53.2163,281.4628,78.1331,281.9806,0.0010776,0.00016934,0.0,0 STARLINK-3711,1 52131U 22029AV  24110.84459092  .00016934  00000-0  10776-2 0  9992,2 52131  53.2163 281.4628 0001294  78.1331 281.9806 15.08903938116945,6917.685,95.434,540.445,538.655,0.0
52131.0,STARLINK-3711,PAYLOAD,2024-04-19 21:51:35,15.08903481,0.000138,53.2168,281.17,71.65,288.4642,0.0010465,0.00016435,0.0,0 STARLINK-3711,1 52131U 22029AV  24110.91082993  .00016435  00000-0  10465-2 0  9993,2 52131  53.2168 281.1700 0001380  71.6500 288.4642 15.08903481116954,6917.686,95.434,540.506,538.597,0.0
52131.0,STARLINK-3711,PAYLOAD,2024-04-20 18:31:39,15.08839481,0.0001367,53.2169,277.29,94.4468,265.6681,-8.1388e-05,-1.583e-05,0.0,0 STARLINK-3711,1 52131U 22029AV  24111.77198209 -.00001583  00000-0 -81388-4 0  9990,2 52131  53.2169 277.2900 0001367  94.4468 265.6681 15.08839481117087,6917.882,95.438,540.693,538.801,0.0
52131.0,STARLINK-3711,PAYLOAD,2024-04-21 10:25:31,15.08832634,0.0001421,53.2178,274.3307,95.9233,264.1921,1.5621e-05,-3.9e-07,0.0,0 STARLINK-3711,1 52131U 22029AV  24112.43438830 -.00000039  00000-0  15621-4 0  9992,2 52131  53.2178 274.3307 0001421  95.9233 264.1921 15.08832634117188,6917.903,95.438,540.751,538.785,0.0
52131.0,STARLINK-3711,PAYLOAD,2024-04-21 18:22:27,15.08834802,0.0001713,53.218,272.8403,85.1739,274.9448,-1.1333e-05,-4.68e-06,0.0,0 STARLINK-3711,1 52131U 22029AV  24112.76559129 -.00000468  00000-0 -11333-4 0  9996,2 52131  53.2180 272.8403 0001713  85.1739 274.9448 15.08834802117235,6917.896,95.438,540.946,538.576,0.0
